start=new Date('2021-10-31T00:00:00.000Z').valueOf();
sats=[{"COUNTRY_CODE":"US","GP_ID":"188515647","APOAPSIS":"550.826","REV_AT_EPOCH":"4096","TLE_LINE2":"2 47561  53.0571 324.9228 0005205  11.2699 348.8406 15.06397557 40966","MEAN_MOTION":"15.06397557","MEAN_ANOMALY":"348.8406","SITE":"AFETR","REF_FRAME":"TEME","BSTAR":"0.00001956400000","OBJECT_NAME":"STARLINK-1960","CLASSIFICATION_TYPE":"U","INCLINATION":"53.0571","EPOCH":"2021-10-30T11:04:29.389728","PERIOD":"95.592","ELEMENT_SET_NO":"999","MEAN_MOTION_DOT":"0.00000008","PERIAPSIS":"543.616","RA_OF_ASC_NODE":"324.9228","TIME_SYSTEM":"UTC","TLE_LINE1":"1 47561U 21009P   21303.46145127  .00000008  00000-0  19564-4 0  9991","ARG_OF_PERICENTER":"11.2699","FILE":"3192905","NORAD_CAT_ID":"47561","MEAN_ELEMENT_THEORY":"SGP4","CENTER_NAME":"EARTH","RCS_SIZE":"LARGE","MEAN_MOTION_DDOT":"0.0000000000000","OBJECT_ID":"2021-009P","EPHEMERIS_TYPE":"0","LAUNCH_DATE":"2021-02-04","SEMIMAJOR_AXIS":"6925.356","ECCENTRICITY":"0.00052050","OBJECT_TYPE":"PAYLOAD","DECAY_DATE":null},{"TLE_LINE1":"1 47562U 21009Q   21303.47618200  .00001011  00000-0  86763-4 0  9990","TIME_SYSTEM":"UTC","RA_OF_ASC_NODE":"324.8555","ARG_OF_PERICENTER":"80.6537","FILE":"3192905","NORAD_CAT_ID":"47562","MEAN_ELEMENT_THEORY":"SGP4","RCS_SIZE":"LARGE","CENTER_NAME":"EARTH","MEAN_MOTION_DDOT":"0.0000000000000","OBJECT_ID":"2021-009Q","EPHEMERIS_TYPE":"0","SEMIMAJOR_AXIS":"6925.320","LAUNCH_DATE":"2021-02-04","OBJECT_TYPE":"PAYLOAD","ECCENTRICITY":"0.00013460","DECAY_DATE":null,"GP_ID":"188515896","COUNTRY_CODE":"US","APOAPSIS":"548.117","TLE_LINE2":"2 47562  53.0564 324.8555 0001346  80.6537 279.4605 15.06409334 40961","REV_AT_EPOCH":"4096","MEAN_MOTION":"15.06409334","MEAN_ANOMALY":"279.4605","REF_FRAME":"TEME","SITE":"AFETR","BSTAR":"0.00008676300000","OBJECT_NAME":"STARLINK-1961","CLASSIFICATION_TYPE":"U","EPOCH":"2021-10-30T11:25:42.124800","INCLINATION":"53.0564","MEAN_MOTION_DOT":"0.00001011","PERIAPSIS":"546.253","ELEMENT_SET_NO":"999","PERIOD":"95.592"},{"ECCENTRICITY":"0.00014350","OBJECT_TYPE":"PAYLOAD","DECAY_DATE":null,"OBJECT_ID":"2021-009R","MEAN_MOTION_DDOT":"0.0000000000000","SEMIMAJOR_AXIS":"6925.356","LAUNCH_DATE":"2021-02-04","EPHEMERIS_TYPE":"0","CENTER_NAME":"EARTH","RCS_SIZE":"LARGE","NORAD_CAT_ID":"47563","MEAN_ELEMENT_THEORY":"SGP4","ARG_OF_PERICENTER":"84.2139","FILE":"3192905","TIME_SYSTEM":"UTC","RA_OF_ASC_NODE":"325.0534","TLE_LINE1":"1 47563U 21009R   21303.43196101  .00001575  00000-0  12461-3 0  9996","PERIOD":"95.592","ELEMENT_SET_NO":"999","MEAN_MOTION_DOT":"0.00001575","PERIAPSIS":"546.228","INCLINATION":"53.0570","EPOCH":"2021-10-30T10:22:01.431264","OBJECT_NAME":"STARLINK-1962","BSTAR":"0.00012461000000","CLASSIFICATION_TYPE":"U","MEAN_MOTION":"15.06397414","TLE_LINE2":"2 47563  53.0570 325.0534 0001435  84.2139 275.9014 15.06397414 40955","REV_AT_EPOCH":"4095","SITE":"AFETR","REF_FRAME":"TEME","MEAN_ANOMALY":"275.9014","APOAPSIS":"548.215","COUNTRY_CODE":"US","GP_ID":"188514646"},{"APOAPSIS":"548.263","GP_ID":"188514896","COUNTRY_CODE":"US","MEAN_MOTION":"15.06406160","TLE_LINE2":"2 47564  53.0561 315.9400 0001542  73.0798 287.0360 15.06406160 41062","REV_AT_EPOCH":"4106","REF_FRAME":"TEME","SITE":"AFETR","MEAN_ANOMALY":"287.0360","OBJECT_NAME":"STARLINK-1963","BSTAR":"0.00027044000000","CLASSIFICATION_TYPE":"U","MEAN_MOTION_DOT":"0.00003750","PERIAPSIS":"546.127","ELEMENT_SET_NO":"999","PERIOD":"95.592","EPOCH":"2021-10-30T05:36:43.876224","INCLINATION":"53.0561","FILE":"3192905","ARG_OF_PERICENTER":"73.0798","TLE_LINE1":"1 47564U 21009S   21303.23384116  .00003750  00000-0  27044-3 0  9990","RA_OF_ASC_NODE":"315.9400","TIME_SYSTEM":"UTC","RCS_SIZE":"LARGE","CENTER_NAME":"EARTH","NORAD_CAT_ID":"47564","MEAN_ELEMENT_THEORY":"SGP4","OBJECT_ID":"2021-009S","MEAN_MOTION_DDOT":"0.0000000000000","LAUNCH_DATE":"2021-02-04","SEMIMAJOR_AXIS":"6925.330","EPHEMERIS_TYPE":"0","OBJECT_TYPE":"PAYLOAD","ECCENTRICITY":"0.00015420","DECAY_DATE":null},{"ARG_OF_PERICENTER":"77.6794","FILE":"3193178","TLE_LINE1":"1 47565U 21009T   21303.49554528  .00004912  00000-0  34829-3 0  9995","RA_OF_ASC_NODE":"314.7640","TIME_SYSTEM":"UTC","RCS_SIZE":"LARGE","CENTER_NAME":"EARTH","MEAN_ELEMENT_THEORY":"SGP4","NORAD_CAT_ID":"47565","OBJECT_ID":"2021-009T","MEAN_MOTION_DDOT":"0.0000000000000","SEMIMAJOR_AXIS":"6925.313","LAUNCH_DATE":"2021-02-04","EPHEMERIS_TYPE":"0","OBJECT_TYPE":"PAYLOAD","ECCENTRICITY":"0.00014950","DECAY_DATE":null,"APOAPSIS":"548.214","GP_ID":"188523402","COUNTRY_CODE":"US","MEAN_MOTION":"15.06411448","REV_AT_EPOCH":"4170","TLE_LINE2":"2 47565  53.0554 314.7640 0001495  77.6794 282.4363 15.06411448 41709","REF_FRAME":"TEME","SITE":"AFETR","MEAN_ANOMALY":"282.4363","OBJECT_NAME":"STARLINK-1964","BSTAR":"0.00034829000000","CLASSIFICATION_TYPE":"U","MEAN_MOTION_DOT":"0.00004912","PERIAPSIS":"546.143","PERIOD":"95.591","ELEMENT_SET_NO":"999","EPOCH":"2021-10-30T11:53:35.112192","INCLINATION":"53.0554"},{"PERIAPSIS":"546.158","MEAN_MOTION_DOT":"0.00001151","PERIOD":"95.592","ELEMENT_SET_NO":"999","EPOCH":"2021-10-30T05:22:08.251104","INCLINATION":"53.0557","OBJECT_NAME":"STARLINK-1965","BSTAR":"0.00009614800000","CLASSIFICATION_TYPE":"U","MEAN_MOTION":"15.06406690","TLE_LINE2":"2 47566  53.0557 305.9798 0001494  74.5482 285.5672 15.06406690 41203","REV_AT_EPOCH":"4120","REF_FRAME":"TEME","SITE":"AFETR","MEAN_ANOMALY":"285.5672","APOAPSIS":"548.228","GP_ID":"188516396","COUNTRY_CODE":"US","OBJECT_TYPE":"PAYLOAD","ECCENTRICITY":"0.00014940","DECAY_DATE":null,"OBJECT_ID":"2021-009U","MEAN_MOTION_DDOT":"0.0000000000000","SEMIMAJOR_AXIS":"6925.328","LAUNCH_DATE":"2021-02-04","EPHEMERIS_TYPE":"0","RCS_SIZE":"LARGE","CENTER_NAME":"EARTH","MEAN_ELEMENT_THEORY":"SGP4","NORAD_CAT_ID":"47566","ARG_OF_PERICENTER":"74.5482","FILE":"3192905","TLE_LINE1":"1 47566U 21009U   21303.22370661  .00001151  00000-0  96148-4 0  9996","TIME_SYSTEM":"UTC","RA_OF_ASC_NODE":"305.9798"},{"MEAN_ELEMENT_THEORY":"SGP4","NORAD_CAT_ID":"47567","CENTER_NAME":"EARTH","RCS_SIZE":"LARGE","TIME_SYSTEM":"UTC","RA_OF_ASC_NODE":"345.2280","TLE_LINE1":"1 47567U 21009V   21303.39325782  .00001121  00000-0  94140-4 0  9996","ARG_OF_PERICENTER":"77.1234","FILE":"3192905","DECAY_DATE":null,"ECCENTRICITY":"0.00012330","OBJECT_TYPE":"PAYLOAD","EPHEMERIS_TYPE":"0","SEMIMAJOR_AXIS":"6925.328","LAUNCH_DATE":"2021-02-04","MEAN_MOTION_DDOT":"0.0000000000000","OBJECT_ID":"2021-009V","MEAN_ANOMALY":"282.9893","SITE":"AFETR","REF_FRAME":"TEME","TLE_LINE2":"2 47567  53.0566 345.2280 0001233  77.1234 282.9893 15.06406657 40660","REV_AT_EPOCH":"4066","MEAN_MOTION":"15.06406657","COUNTRY_CODE":"US","GP_ID":"188515146","APOAPSIS":"548.047","EPOCH":"2021-10-30T09:26:17.475648","INCLINATION":"53.0566","PERIOD":"95.592","ELEMENT_SET_NO":"999","PERIAPSIS":"546.339","MEAN_MOTION_DOT":"0.00001121","CLASSIFICATION_TYPE":"U","BSTAR":"0.00009414000000","OBJECT_NAME":"STARLINK-1966"},{"OBJECT_NAME":"STARLINK-1967","BSTAR":"0.00007336100000","CLASSIFICATION_TYPE":"U","PERIOD":"95.592","ELEMENT_SET_NO":"999","PERIAPSIS":"546.254","MEAN_MOTION_DOT":"0.00000812","INCLINATION":"53.0554","EPOCH":"2021-10-30T10:03:26.663040","APOAPSIS":"548.151","COUNTRY_CODE":"US","GP_ID":"188515396","MEAN_MOTION":"15.06403628","REV_AT_EPOCH":"4067","TLE_LINE2":"2 47568  53.0554 345.1161 0001369  86.5567 273.5579 15.06403628 40671","SITE":"AFETR","REF_FRAME":"TEME","MEAN_ANOMALY":"273.5579","OBJECT_ID":"2021-009W","MEAN_MOTION_DDOT":"0.0000000000000","LAUNCH_DATE":"2021-02-04","SEMIMAJOR_AXIS":"6925.337","EPHEMERIS_TYPE":"0","ECCENTRICITY":"0.00013690","OBJECT_TYPE":"PAYLOAD","DECAY_DATE":null,"FILE":"3192905","ARG_OF_PERICENTER":"86.5567","TIME_SYSTEM":"UTC","RA_OF_ASC_NODE":"345.1161","TLE_LINE1":"1 47568U 21009W   21303.41905860  .00000812  00000-0  73361-4 0  9999","CENTER_NAME":"EARTH","RCS_SIZE":"LARGE","MEAN_ELEMENT_THEORY":"SGP4","NORAD_CAT_ID":"47568"},{"GP_ID":"188523392","COUNTRY_CODE":"US","APOAPSIS":"526.499","MEAN_ANOMALY":"297.8239","REF_FRAME":"TEME","SITE":"AFETR","TLE_LINE2":"2 47569  53.0567 319.2013 0002365  62.2993 297.8239 15.13720857 41650","REV_AT_EPOCH":"4165","MEAN_MOTION":"15.13720857","CLASSIFICATION_TYPE":"U","BSTAR":"0.01334000000000","OBJECT_NAME":"STARLINK-1968","EPOCH":"2021-10-30T13:07:17.433120","INCLINATION":"53.0567","PERIAPSIS":"523.234","MEAN_MOTION_DOT":"0.00251508","ELEMENT_SET_NO":"999","PERIOD":"95.130","TLE_LINE1":"1 47569U 21009X   21303.54672955  .00251508  00000-0  13340-1 0  9998","RA_OF_ASC_NODE":"319.2013","TIME_SYSTEM":"UTC","ARG_OF_PERICENTER":"62.2993","FILE":"3193178","NORAD_CAT_ID":"47569","MEAN_ELEMENT_THEORY":"SGP4","RCS_SIZE":"LARGE","CENTER_NAME":"EARTH","EPHEMERIS_TYPE":"0","LAUNCH_DATE":"2021-02-04","SEMIMAJOR_AXIS":"6903.002","MEAN_MOTION_DDOT":"0.0000000000000","OBJECT_ID":"2021-009X","DECAY_DATE":null,"OBJECT_TYPE":"PAYLOAD","ECCENTRICITY":"0.00023650"},{"FILE":"3192905","ARG_OF_PERICENTER":"74.6324","TLE_LINE1":"1 47570U 21009Y   21303.41168871  .00002204  00000-0  16678-3 0  9999","TIME_SYSTEM":"UTC","RA_OF_ASC_NODE":"305.1499","RCS_SIZE":"LARGE","CENTER_NAME":"EARTH","NORAD_CAT_ID":"47570","MEAN_ELEMENT_THEORY":"SGP4","SEMIMAJOR_AXIS":"6925.338","LAUNCH_DATE":"2021-02-04","EPHEMERIS_TYPE":"0","OBJECT_ID":"2021-009Y","MEAN_MOTION_DDOT":"0.0000000000000","DECAY_DATE":null,"OBJECT_TYPE":"PAYLOAD","ECCENTRICITY":"0.00015430","APOAPSIS":"548.272","GP_ID":"188515897","COUNTRY_CODE":"US","REF_FRAME":"TEME","SITE":"AFETR","MEAN_ANOMALY":"285.4835","MEAN_MOTION":"15.06403426","REV_AT_EPOCH":"4123","TLE_LINE2":"2 47570  53.0541 305.1499 0001543  74.6324 285.4835 15.06403426 41239","CLASSIFICATION_TYPE":"U","OBJECT_NAME":"STARLINK-1969","BSTAR":"0.00016678000000","PERIAPSIS":"546.134","MEAN_MOTION_DOT":"0.00002204","PERIOD":"95.592","ELEMENT_SET_NO":"999","EPOCH":"2021-10-30T09:52:49.904544","INCLINATION":"53.0541"}];
